GNOMES-1                
1 46266U 20059B   26068.53916665  .00004080  00000+0  33422-3 0  9991
2 46266  97.8057 278.7760 0005451 357.8604   2.2595 14.99848479300657
STARLINK-34096          
1 64043U 25102X   26068.51159660  .00003409  00000+0  29332-3 0  9999
2 64043  70.0002 114.9789 0003792 267.5926  92.4799 14.98331160 45819
